[{"OBJECT_NAME":"JILIN-1 GAOFEN 03D08","OBJECT_ID":"2022-155A","EPOCH":"2026-03-09T23:19:58.131840","MEAN_MOTION":15.549418,"ECCENTRICITY":0.00037458,"INCLINATION":97.6053,"RA_OF_ASC_NODE":207.2887,"ARG_OF_PERICENTER":356.2753,"MEAN_ANOMALY":3.8472,"EPHEMERIS_TYPE":0,"CLASSIFICATION_TYPE":"U","NORAD_CAT_ID":54251,"ELEMENT_SET_NO":999,"REV_AT_EPOCH":18435,"BSTAR":0.00076641112,"MEAN_MOTION_DOT":0.00051434,"MEAN_MOTION_DDOT":0},{"OBJECT_NAME":"GXIBA-1","OBJECT_ID":"1998-067YA","EPOCH":"2026-03-09T07:32:56.030496","MEAN_MOTION":15.54259962,"ECCENTRICITY":0.00110131,"INCLINATION":51.63,"RA_OF_ASC_NODE":73.4032,"ARG_OF_PERICENTER":174.4815,"MEAN_ANOMALY":185.6299,"EPHEMERIS_TYPE":0,"CLASSIFICATION_TYPE":"U","NORAD_CAT_ID":67684,"ELEMENT_SET_NO":999,"REV_AT_EPOCH":473,"BSTAR":0.0011905476,"MEAN_MOTION_DOT":0.00079693,"MEAN_MOTION_DDOT":0}]
